[{"OBJECT_NAME":"STARLINK-5096","OBJECT_ID":"2022-125AU","EPOCH":"2026-03-09T17:20:20.447232","MEAN_MOTION":15.08853201,"ECCENTRICITY":0.00010612,"INCLINATION":53.2175,"RA_OF_ASC_NODE":213.5472,"ARG_OF_PERICENTER":93.4423,"MEAN_ANOMALY":266.669,"EPHEMERIS_TYPE":0,"CLASSIFICATION_TYPE":"U","NORAD_CAT_ID":54006,"ELEMENT_SET_NO":999,"REV_AT_EPOCH":18946,"BSTAR":0.00024999748,"MEAN_MOTION_DOT":3.695e-5,"MEAN_MOTION_DDOT":0},{"OBJECT_NAME":"MEGSAT-1","OBJECT_ID":"2000-057B","EPOCH":"2026-03-09T22:47:17.292480","MEAN_MOTION":15.04862037,"ECCENTRICITY":0.0038022,"INCLINATION":64.552,"RA_OF_ASC_NODE":26.971,"ARG_OF_PERICENTER":294.4401,"MEAN_ANOMALY":65.2751,"EPHEMERIS_TYPE":0,"CLASSIFICATION_TYPE":"U","NORAD_CAT_ID":26546,"ELEMENT_SET_NO":999,"REV_AT_EPOCH":38272,"BSTAR":0.00040228449,"MEAN_MOTION_DOT":5.624e-5,"MEAN_MOTION_DDOT":0}]
